start=new Date('2021-12-28T00:00:00.000Z').valueOf();
sats=[{"GP_ID":"192606310","LAUNCH_DATE":"2021-05-15","TLE_LINE2":"2 48595  53.0547 182.6394 0002230  88.1976 271.9268 15.06385044 35308","MEAN_MOTION_DOT":"0.00001047","SITE":"AFETR","ELEMENT_SET_NO":"999","CLASSIFICATION_TYPE":"U","PERIOD":"95.593","FILE":"3253114","DECAY_DATE":null,"MEAN_ELEMENT_THEORY":"SGP4","REF_FRAME":"TEME","MEAN_MOTION":"15.06385044","OBJECT_ID":"2021-041AU","OBJECT_NAME":"STARLINK-2252","APOAPSIS":"548.804","EPHEMERIS_TYPE":"0","CENTER_NAME":"EARTH","COUNTRY_CODE":"US","INCLINATION":"53.0547","REV_AT_EPOCH":"3530","TLE_LINE1":"1 48595U 21041AU  21361.88731078  .00001047  00000-0  89238-4 0  9990","RA_OF_ASC_NODE":"182.6394","PERIAPSIS":"545.715","OBJECT_TYPE":"PAYLOAD","EPOCH":"2021-12-27T21:17:43.651392","NORAD_CAT_ID":"48595","SEMIMAJOR_AXIS":"6925.394","MEAN_ANOMALY":"271.9268","MEAN_MOTION_DDOT":"0.0000000000000","ARG_OF_PERICENTER":"88.1976","BSTAR":"0.00008923800000","TIME_SYSTEM":"UTC","RCS_SIZE":"LARGE","ECCENTRICITY":"0.00022300"},{"OBJECT_ID":"2021-041AV","MEAN_MOTION":"15.06395344","OBJECT_NAME":"STARLINK-2253","INCLINATION":"53.0545","CENTER_NAME":"EARTH","COUNTRY_CODE":"US","APOAPSIS":"548.992","EPHEMERIS_TYPE":"0","REV_AT_EPOCH":"3448","TLE_LINE1":"1 48596U 21041AV  21361.84308377  .00001906  00000-0  14683-3 0  9994","RA_OF_ASC_NODE":"182.8355","EPOCH":"2021-12-27T20:14:02.437728","PERIAPSIS":"545.463","OBJECT_TYPE":"PAYLOAD","SEMIMAJOR_AXIS":"6925.363","MEAN_ANOMALY":"280.3581","NORAD_CAT_ID":"48596","MEAN_MOTION_DDOT":"0.0000000000000","ARG_OF_PERICENTER":"79.7696","ECCENTRICITY":"0.00025480","RCS_SIZE":"LARGE","BSTAR":"0.00014683000000","TIME_SYSTEM":"UTC","GP_ID":"192605619","LAUNCH_DATE":"2021-05-15","MEAN_MOTION_DOT":"0.00001906","TLE_LINE2":"2 48596  53.0545 182.8355 0002548  79.7696 280.3581 15.06395344 34487","CLASSIFICATION_TYPE":"U","PERIOD":"95.592","SITE":"AFETR","ELEMENT_SET_NO":"999","REF_FRAME":"TEME","DECAY_DATE":null,"MEAN_ELEMENT_THEORY":"SGP4","FILE":"3253114"},{"DECAY_DATE":null,"MEAN_ELEMENT_THEORY":"SGP4","REF_FRAME":"TEME","FILE":"3253114","CLASSIFICATION_TYPE":"U","PERIOD":"95.592","SITE":"AFETR","ELEMENT_SET_NO":"999","MEAN_MOTION_DOT":"0.00001455","TLE_LINE2":"2 48597  53.0552 182.5133 0002459  88.0920 272.0351 15.06398631 35308","LAUNCH_DATE":"2021-05-15","GP_ID":"192605853","RCS_SIZE":"LARGE","ECCENTRICITY":"0.00024590","BSTAR":"0.00011657000000","TIME_SYSTEM":"UTC","MEAN_MOTION_DDOT":"0.0000000000000","ARG_OF_PERICENTER":"88.0920","MEAN_ANOMALY":"272.0351","SEMIMAJOR_AXIS":"6925.353","NORAD_CAT_ID":"48597","EPOCH":"2021-12-27T22:00:09.982080","OBJECT_TYPE":"PAYLOAD","PERIAPSIS":"545.515","RA_OF_ASC_NODE":"182.5133","TLE_LINE1":"1 48597U 21041AW  21361.91678220  .00001455  00000-0  11657-3 0  9997","REV_AT_EPOCH":"3530","CENTER_NAME":"EARTH","COUNTRY_CODE":"US","INCLINATION":"53.0552","APOAPSIS":"548.921","EPHEMERIS_TYPE":"0","OBJECT_NAME":"STARLINK-2255","MEAN_MOTION":"15.06398631","OBJECT_ID":"2021-041AW"},{"PERIAPSIS":"545.796","OBJECT_TYPE":"PAYLOAD","EPOCH":"2021-12-27T20:29:56.940864","SEMIMAJOR_AXIS":"6925.384","NORAD_CAT_ID":"48598","MEAN_ANOMALY":"271.6935","MEAN_MOTION_DDOT":"0.0000000000000","ARG_OF_PERICENTER":"88.4294","TIME_SYSTEM":"UTC","BSTAR":"0.00009126200000","RCS_SIZE":"LARGE","ECCENTRICITY":"0.00020970","OBJECT_ID":"2021-041AX","MEAN_MOTION":"15.06388561","OBJECT_NAME":"STARLINK-2256","EPHEMERIS_TYPE":"0","APOAPSIS":"548.701","COUNTRY_CODE":"US","CENTER_NAME":"EARTH","INCLINATION":"53.0531","REV_AT_EPOCH":"3448","TLE_LINE1":"1 48598U 21041AX  21361.85413126  .00001077  00000-0  91262-4 0  9994","RA_OF_ASC_NODE":"182.7878","FILE":"3253114","MEAN_ELEMENT_THEORY":"SGP4","DECAY_DATE":null,"REF_FRAME":"TEME","GP_ID":"192606084","LAUNCH_DATE":"2021-05-15","TLE_LINE2":"2 48598  53.0531 182.7878 0002097  88.4294 271.6935 15.06388561 34482","MEAN_MOTION_DOT":"0.00001077","SITE":"AFETR","ELEMENT_SET_NO":"999","CLASSIFICATION_TYPE":"U","PERIOD":"95.593"},{"GP_ID":"192606770","LAUNCH_DATE":"2021-05-15","MEAN_MOTION_DOT":"-0.00000815","TLE_LINE2":"2 48599  53.0547 157.9531 0002707 105.0426 255.0863 15.06407087 35641","CLASSIFICATION_TYPE":"U","PERIOD":"95.592","ELEMENT_SET_NO":"999","SITE":"AFETR","REF_FRAME":"TEME","DECAY_DATE":null,"MEAN_ELEMENT_THEORY":"SGP4","FILE":"3253114","MEAN_MOTION":"15.06407087","OBJECT_ID":"2021-041AY","OBJECT_NAME":"STARLINK-2274","INCLINATION":"53.0547","CENTER_NAME":"EARTH","COUNTRY_CODE":"US","APOAPSIS":"549.067","EPHEMERIS_TYPE":"0","TLE_LINE1":"1 48599U 21041AY  21361.81401971 -.00000815  00000-0 -35778-4 0  9997","RA_OF_ASC_NODE":"157.9531","REV_AT_EPOCH":"3564","EPOCH":"2021-12-27T19:32:11.302944","PERIAPSIS":"545.317","OBJECT_TYPE":"PAYLOAD","MEAN_ANOMALY":"255.0863","SEMIMAJOR_AXIS":"6925.327","NORAD_CAT_ID":"48599","ARG_OF_PERICENTER":"105.0426","MEAN_MOTION_DDOT":"0.0000000000000","ECCENTRICITY":"0.00027070","RCS_SIZE":"LARGE","BSTAR":"-0.00003577800000","TIME_SYSTEM":"UTC"},{"LAUNCH_DATE":"2021-05-15","GP_ID":"192605133","CLASSIFICATION_TYPE":"U","PERIOD":"95.592","SITE":"AFETR","ELEMENT_SET_NO":"999","MEAN_MOTION_DOT":"0.00001501","TLE_LINE2":"2 48600  53.0536 172.7858 0002417  89.6869 270.4397 15.06396975 35438","REF_FRAME":"TEME","DECAY_DATE":null,"MEAN_ELEMENT_THEORY":"SGP4","FILE":"3253114","OBJECT_NAME":"STARLINK-2275","MEAN_MOTION":"15.06396975","OBJECT_ID":"2021-041AZ","RA_OF_ASC_NODE":"172.7858","TLE_LINE1":"1 48600U 21041AZ  21361.85134941  .00001501  00000-0  11969-3 0  9990","REV_AT_EPOCH":"3543","INCLINATION":"53.0536","CENTER_NAME":"EARTH","COUNTRY_CODE":"US","EPHEMERIS_TYPE":"0","APOAPSIS":"548.897","MEAN_ANOMALY":"270.4397","SEMIMAJOR_AXIS":"6925.358","NORAD_CAT_ID":"48600","EPOCH":"2021-12-27T20:25:56.589024","OBJECT_TYPE":"PAYLOAD","PERIAPSIS":"545.549","ECCENTRICITY":"0.00024170","RCS_SIZE":"LARGE","TIME_SYSTEM":"UTC","BSTAR":"0.00011969000000","ARG_OF_PERICENTER":"89.6869","MEAN_MOTION_DDOT":"0.0000000000000"},{"ARG_OF_PERICENTER":"93.0636","MEAN_MOTION_DDOT":"0.0000000000000","RCS_SIZE":"LARGE","ECCENTRICITY":"0.00021240","BSTAR":"0.00017305000000","TIME_SYSTEM":"UTC","EPOCH":"2021-12-27T20:19:57.869184","OBJECT_TYPE":"PAYLOAD","PERIAPSIS":"545.729","SEMIMAJOR_AXIS":"6925.335","NORAD_CAT_ID":"48602","MEAN_ANOMALY":"267.0596","CENTER_NAME":"EARTH","COUNTRY_CODE":"US","INCLINATION":"53.0515","EPHEMERIS_TYPE":"0","APOAPSIS":"548.671","REV_AT_EPOCH":"3563","TLE_LINE1":"1 48602U 21041BB  21361.84719756  .00002297  00000-0  17305-3 0  9997","RA_OF_ASC_NODE":"157.8265","MEAN_MOTION":"15.06404540","OBJECT_ID":"2021-041BB","OBJECT_NAME":"STARLINK-2713","MEAN_ELEMENT_THEORY":"SGP4","DECAY_DATE":null,"REF_FRAME":"TEME","FILE":"3253114","MEAN_MOTION_DOT":"0.00002297","TLE_LINE2":"2 48602  53.0515 157.8265 0002124  93.0636 267.0596 15.06404540 35632","PERIOD":"95.592","CLASSIFICATION_TYPE":"U","SITE":"AFETR","ELEMENT_SET_NO":"999","GP_ID":"192605367","LAUNCH_DATE":"2021-05-15"},{"MEAN_MOTION_DOT":"0.00001807","TLE_LINE2":"2 48603  53.0533 153.5060 0002476  93.4491 266.6781 15.06397886 35693","CLASSIFICATION_TYPE":"U","PERIOD":"95.592","ELEMENT_SET_NO":"999","SITE":"AFETR","GP_ID":"192606542","LAUNCH_DATE":"2021-05-15","REF_FRAME":"TEME","MEAN_ELEMENT_THEORY":"SGP4","DECAY_DATE":null,"FILE":"3253114","INCLINATION":"53.0533","CENTER_NAME":"EARTH","COUNTRY_CODE":"US","EPHEMERIS_TYPE":"0","APOAPSIS":"548.935","TLE_LINE1":"1 48603U 21041BC  21361.69374381  .00001807  00000-0  14023-3 0  9992","REV_AT_EPOCH":"3569","RA_OF_ASC_NODE":"153.5060","MEAN_MOTION":"15.06397886","OBJECT_ID":"2021-041BC","OBJECT_NAME":"STARLINK-2714","MEAN_MOTION_DDOT":"0.0000000000000","ARG_OF_PERICENTER":"93.4491","ECCENTRICITY":"0.00024760","RCS_SIZE":"LARGE","TIME_SYSTEM":"UTC","BSTAR":"0.00014023000000","EPOCH":"2021-12-27T16:38:59.465184","OBJECT_TYPE":"PAYLOAD","PERIAPSIS":"545.505","MEAN_ANOMALY":"266.6781","SEMIMAJOR_AXIS":"6925.355","NORAD_CAT_ID":"48603"},{"REF_FRAME":"TEME","DECAY_DATE":null,"MEAN_ELEMENT_THEORY":"SGP4","FILE":"3253114","LAUNCH_DATE":"2021-05-15","GP_ID":"192606311","CLASSIFICATION_TYPE":"U","PERIOD":"95.592","ELEMENT_SET_NO":"999","SITE":"AFETR","MEAN_MOTION_DOT":"-0.00000487","TLE_LINE2":"2 48604  53.0546 182.6022 0002381  84.1262 275.9998 15.06395156 35306","SEMIMAJOR_AXIS":"6925.363","MEAN_ANOMALY":"275.9998","NORAD_CAT_ID":"48604","EPOCH":"2021-12-27T21:28:18.635232","OBJECT_TYPE":"PAYLOAD","PERIAPSIS":"545.579","ECCENTRICITY":"0.00023810","RCS_SIZE":"LARGE","BSTAR":"-0.00001377500000","TIME_SYSTEM":"UTC","ARG_OF_PERICENTER":"84.1262","MEAN_MOTION_DDOT":"0.0000000000000","OBJECT_NAME":"STARLINK-2757","OBJECT_ID":"2021-041BD","MEAN_MOTION":"15.06395156","TLE_LINE1":"1 48604U 21041BD  21361.89466013 -.00000487  00000-0 -13775-4 0  9998","RA_OF_ASC_NODE":"182.6022","REV_AT_EPOCH":"3530","INCLINATION":"53.0546","CENTER_NAME":"EARTH","COUNTRY_CODE":"US","APOAPSIS":"548.877","EPHEMERIS_TYPE":"0"},{"FILE":"3253114","REF_FRAME":"TEME","MEAN_ELEMENT_THEORY":"SGP4","DECAY_DATE":null,"TLE_LINE2":"2 48638  53.0554 157.8131 0002694  95.0724 265.0572 15.06400039 32748","MEAN_MOTION_DOT":"-0.00000241","SITE":"AFETR","ELEMENT_SET_NO":"999","PERIOD":"95.592","CLASSIFICATION_TYPE":"U","GP_ID":"192605858","LAUNCH_DATE":"2021-05-26","ARG_OF_PERICENTER":"95.0724","MEAN_MOTION_DDOT":"0.0000000000000","TIME_SYSTEM":"UTC","BSTAR":"0.00000274300000","ECCENTRICITY":"0.00026940","RCS_SIZE":"LARGE","PERIAPSIS":"545.348","OBJECT_TYPE":"PAYLOAD","EPOCH":"2021-12-27T20:18:36.057024","SEMIMAJOR_AXIS":"6925.348","NORAD_CAT_ID":"48638","MEAN_ANOMALY":"265.0572","APOAPSIS":"549.079","EPHEMERIS_TYPE":"0","INCLINATION":"53.0554","CENTER_NAME":"EARTH","COUNTRY_CODE":"US","REV_AT_EPOCH":"3274","TLE_LINE1":"1 48638U 21044A   21361.84625066 -.00000241  00000-0  27430-5 0  9999","RA_OF_ASC_NODE":"157.8131","OBJECT_ID":"2021-044A","MEAN_MOTION":"15.06400039","OBJECT_NAME":"STARLINK-2758"}];
